{"type": "FeatureCollection", "features": [{"type": "Feature", "properties": {"customer_route_number": 147, "name": "#119 to 120: NB Avenue 41 -> Harris Ln ", "description": "attempting to create a segment for these intersections in order to gather geojson information", "shared": true}, "geometry": {"type": "LineString", "coordinates": [[-116.30374, 33.75089], [-116.30374, 33.75135], [-116.30373, 33.75182], [-116.30373, 33.75229], [-116.30373, 33.75302], [-116.30373, 33.75364], [-116.30372, 33.75454], [-116.30371, 33.75468], [-116.30364, 33.7552], [-116.30354, 33.75553], [-116.30337, 33.75603]]}}]}