{"type": "FeatureCollection", "features": [{"type": "Feature", "properties": {"customer_route_number": 155, "name": "#124-125: NB Market Pl -> Del Webb", "description": null, "shared": true}, "geometry": {"type": "LineString", "coordinates": [[-116.30068, 33.76326], [-116.3007, 33.76354], [-116.30074, 33.76389], [-116.30079, 33.76416], [-116.30092, 33.76462], [-116.30097, 33.76478], [-116.30114, 33.76517], [-116.30115, 33.76529], [-116.30126, 33.76553], [-116.30145, 33.76583], [-116.30185, 33.76637], [-116.3019, 33.76643], [-116.3024, 33.76698], [-116.30276, 33.76744], [-116.30294, 33.7677], [-116.30316, 33.76812], [-116.30323, 33.76825], [-116.30333, 33.7685], [-116.30345, 33.76867]]}}]}