{"type": "FeatureCollection", "features": [{"type": "Feature", "properties": {"customer_route_number": 156, "name": "#125-124: SB Del Webb -> Market Pl", "description": null, "shared": true}, "geometry": {"type": "LineString", "coordinates": [[-116.30345, 33.76867], [-116.30347, 33.76848], [-116.30342, 33.76835], [-116.30314, 33.76779], [-116.30291, 33.76741], [-116.30249, 33.76688], [-116.30202, 33.76636], [-116.30194, 33.76627], [-116.30159, 33.76582], [-116.30138, 33.7655], [-116.30126, 33.76528], [-116.30114, 33.76517], [-116.30097, 33.76478], [-116.30092, 33.76462], [-116.30079, 33.76416], [-116.30074, 33.76389], [-116.3007, 33.76354], [-116.30068, 33.76326]]}}]}