{"type": "FeatureCollection", "features": [{"type": "Feature", "properties": {"customer_route_number": 287, "name": "EB: Washington St -> Adams St", "description": "cvsync data test", "shared": true}, "geometry": {"type": "LineString", "coordinates": [[-116.29448, 33.70755], [-116.29335, 33.70754], [-116.2933, 33.70754], [-116.29286, 33.70744], [-116.29238, 33.70728], [-116.29194, 33.7072], [-116.29164, 33.70718], [-116.29024, 33.7072], [-116.2897, 33.70721], [-116.28942, 33.7072], [-116.28915, 33.70714], [-116.28898, 33.70708], [-116.2888, 33.70699], [-116.28848, 33.70684], [-116.28819, 33.7067], [-116.28774, 33.70656], [-116.2876, 33.70654], [-116.28737, 33.70652], [-116.28617, 33.70652]]}}]}