{"type": "FeatureCollection", "features": [{"type": "Feature", "properties": {"customer_route_number": 285, "name": "EB: Washington St - > Adams St", "description": "Will use for \"CV SYNC DATA TEST\" Email from Carlos and Justin", "shared": true}, "geometry": {"type": "LineString", "coordinates": [[-116.29499, 33.71502], [-116.29479, 33.7149], [-116.29431, 33.7146], [-116.29406, 33.71441], [-116.29359, 33.71403], [-116.29328, 33.71374], [-116.29302, 33.71349], [-116.2926, 33.71307], [-116.29193, 33.71243], [-116.29159, 33.7121], [-116.29115, 33.71167], [-116.29109, 33.71161], [-116.29055, 33.71108], [-116.29022, 33.71077], [-116.28971, 33.71027], [-116.2892, 33.7098], [-116.28882, 33.7095], [-116.28829, 33.70914], [-116.28812, 33.70905], [-116.28761, 33.70878], [-116.28749, 33.70872], [-116.28714, 33.70856], [-116.28702, 33.70852], [-116.28619, 33.7082]]}}]}