{"type": "FeatureCollection", "features": [{"type": "Feature", "properties": {"customer_route_number": 79, "name": "Highway 111 WB: Indio Blvd -> Monroe St", "description": null, "shared": true}, "geometry": {"type": "LineString", "coordinates": [[-116.20712, 33.71505], [-116.20721, 33.71494], [-116.20733, 33.7149], [-116.20749, 33.71488], [-116.20773, 33.71488], [-116.20807, 33.71488], [-116.2083, 33.71488], [-116.20857, 33.71489], [-116.20871, 33.71489], [-116.20922, 33.71489], [-116.20952, 33.71489], [-116.2098, 33.71489], [-116.21031, 33.7149], [-116.2108, 33.71489], [-116.21097, 33.71489], [-116.21116, 33.71489], [-116.21136, 33.71489], [-116.21184, 33.71489], [-116.21195, 33.71489], [-116.21256, 33.71489], [-116.21284, 33.71489], [-116.213, 33.71489], [-116.21334, 33.7149], [-116.21355, 33.7149], [-116.21384, 33.7149], [-116.21421, 33.7149], [-116.21436, 33.7149], [-116.2148, 33.7149], [-116.21522, 33.7149], [-116.21538, 33.7149], [-116.21555, 33.7149], [-116.2158, 33.7149], [-116.21618, 33.71488], [-116.21633, 33.71492], [-116.21689, 33.7149], [-116.21712, 33.7149], [-116.21755, 33.7149], [-116.21777, 33.7149], [-116.21819, 33.71491], [-116.21947, 33.71493], [-116.21989, 33.71493], [-116.22015, 33.71493], [-116.22023, 33.71493], [-116.22072, 33.71493], [-116.22086, 33.71493], [-116.22145, 33.71492], [-116.22178, 33.71492], [-116.22216, 33.71492], [-116.22241, 33.71492], [-116.22278, 33.71491], [-116.22287, 33.71491], [-116.22341, 33.71491], [-116.22394, 33.7149], [-116.22416, 33.7149], [-116.22445, 33.7149], [-116.22508, 33.7149], [-116.2259, 33.7149], [-116.22617, 33.7149], [-116.22677, 33.71489], [-116.2272, 33.71489], [-116.22733, 33.71489], [-116.22773, 33.71489], [-116.22787, 33.71489], [-116.22869, 33.71489], [-116.22952, 33.71488], [-116.22979, 33.71487], [-116.23037, 33.71486], [-116.23086, 33.71486], [-116.23133, 33.71486], [-116.23193, 33.71485], [-116.23208, 33.71485], [-116.23269, 33.7148], [-116.23294, 33.71476], [-116.23339, 33.71467], [-116.2336, 33.71462], [-116.23383, 33.71456]]}}]}