{"type": "FeatureCollection", "features": [{"type": "Feature", "properties": {"customer_route_number": 78, "name": "Highway 111 EB: Monroe St -> Indio Blvd", "description": null, "shared": true}, "geometry": {"type": "LineString", "coordinates": [[-116.23383, 33.71439], [-116.23356, 33.71446], [-116.23335, 33.71451], [-116.23324, 33.71453], [-116.23283, 33.71461], [-116.23251, 33.71465], [-116.23206, 33.71469], [-116.23145, 33.71472], [-116.23117, 33.71473], [-116.23086, 33.71473], [-116.23045, 33.71473], [-116.23003, 33.71474], [-116.22937, 33.71475], [-116.22902, 33.71475], [-116.22869, 33.71476], [-116.22802, 33.71476], [-116.22733, 33.71477], [-116.22727, 33.71477], [-116.22677, 33.71477], [-116.22617, 33.71478], [-116.2259, 33.71478], [-116.22548, 33.71478], [-116.22508, 33.71478], [-116.22408, 33.71479], [-116.22393, 33.71479], [-116.22341, 33.71479], [-116.22307, 33.7148], [-116.22278, 33.7148], [-116.22241, 33.7148], [-116.22216, 33.7148], [-116.22149, 33.71481], [-116.22086, 33.71481], [-116.22073, 33.71481], [-116.22016, 33.71482], [-116.2199, 33.71482], [-116.21927, 33.71482], [-116.21883, 33.71482], [-116.21819, 33.71481], [-116.21778, 33.7148], [-116.21755, 33.7148], [-116.21712, 33.7148], [-116.21689, 33.71481], [-116.21634, 33.71483], [-116.21618, 33.71488], [-116.2158, 33.7149], [-116.21555, 33.7149], [-116.21538, 33.7149], [-116.21522, 33.7149], [-116.2148, 33.7149], [-116.21436, 33.7149], [-116.21421, 33.7149], [-116.21384, 33.7149], [-116.21355, 33.7149], [-116.21334, 33.7149], [-116.213, 33.71489], [-116.21284, 33.71489], [-116.21256, 33.71489], [-116.21195, 33.71489], [-116.21184, 33.71489], [-116.21136, 33.71489], [-116.21116, 33.71489], [-116.21097, 33.71489], [-116.2108, 33.71489], [-116.21031, 33.7149], [-116.2098, 33.71489], [-116.20952, 33.71489], [-116.20922, 33.71489], [-116.20871, 33.71489], [-116.20857, 33.71489], [-116.2083, 33.71488], [-116.20807, 33.71488], [-116.20773, 33.71488], [-116.20749, 33.71488], [-116.20733, 33.7149], [-116.20721, 33.71494], [-116.20712, 33.71505]]}}]}