{"type": "FeatureCollection", "features": [{"type": "Feature", "properties": {"customer_route_number": 72, "name": "Hwy 111: Parkview Drive -> Cook Street", "description": "Acyclica", "shared": true}, "geometry": {"type": "LineString", "coordinates": [[-116.40499, 33.73141], [-116.40405, 33.73008], [-116.40362, 33.72946], [-116.40301, 33.7286], [-116.40216, 33.72741], [-116.40173, 33.7268], [-116.40166, 33.7267], [-116.40068, 33.72538], [-116.4005, 33.72513], [-116.40034, 33.7249], [-116.39962, 33.72396], [-116.39956, 33.72389], [-116.39931, 33.72359], [-116.39896, 33.72325], [-116.39872, 33.72303], [-116.3986, 33.72293], [-116.39795, 33.72247], [-116.39748, 33.72223], [-116.39699, 33.72201], [-116.39673, 33.7219], [-116.39648, 33.72181], [-116.39572, 33.72161], [-116.39563, 33.72159], [-116.39533, 33.72153], [-116.39492, 33.72147], [-116.39439, 33.72144], [-116.39364, 33.7214], [-116.39309, 33.72138], [-116.39303, 33.72138], [-116.39259, 33.72135], [-116.39204, 33.72134], [-116.39146, 33.72133], [-116.39126, 33.72133], [-116.39058, 33.72132], [-116.39035, 33.72132], [-116.39007, 33.72132], [-116.38958, 33.72132], [-116.38831, 33.72131], [-116.38681, 33.72129], [-116.38464, 33.72127], [-116.3842, 33.72126], [-116.38378, 33.72126], [-116.38324, 33.72126], [-116.38251, 33.72125], [-116.38191, 33.72124], [-116.38136, 33.72123], [-116.38053, 33.72123], [-116.38033, 33.72123], [-116.37837, 33.72121], [-116.37779, 33.7212], [-116.37712, 33.7212], [-116.37462, 33.72117], [-116.37427, 33.72117], [-116.37375, 33.72117], [-116.37319, 33.72117], [-116.37271, 33.72116], [-116.37179, 33.72117], [-116.37082, 33.72117], [-116.37029, 33.72117], [-116.36979, 33.72118], [-116.36972, 33.72118], [-116.36927, 33.72118], [-116.36867, 33.72119], [-116.36652, 33.72123], [-116.36598, 33.72124], [-116.36573, 33.72124], [-116.36504, 33.72125], [-116.36466, 33.72125], [-116.36405, 33.72125], [-116.36393, 33.72125], [-116.36308, 33.72125], [-116.36264, 33.72125], [-116.36234, 33.72133], [-116.36224, 33.72133], [-116.36152, 33.72133], [-116.36121, 33.72133], [-116.36059, 33.72133], [-116.3601, 33.72134], [-116.35977, 33.72134], [-116.35938, 33.72134], [-116.3589, 33.72135], [-116.35847, 33.72136], [-116.35819, 33.72136], [-116.3576, 33.72137], [-116.35708, 33.72137], [-116.35685, 33.72137], [-116.35638, 33.72138]]}}]}