{"type": "FeatureCollection", "features": [{"type": "Feature", "properties": {"customer_route_number": 77, "name": "Hwy 111 WB: Monroe St -> Washington Street", "description": null, "shared": true}, "geometry": {"type": "LineString", "coordinates": [[-116.2336, 33.71462], [-116.23383, 33.71456], [-116.23418, 33.71445], [-116.23457, 33.7143], [-116.2348, 33.7142], [-116.23503, 33.71401], [-116.23509, 33.71398], [-116.23524, 33.71391], [-116.23533, 33.71386], [-116.23569, 33.71365], [-116.23581, 33.71357], [-116.23591, 33.71351], [-116.23599, 33.71345], [-116.23614, 33.71334], [-116.23629, 33.71322], [-116.23648, 33.71307], [-116.2368, 33.71277], [-116.23704, 33.71251], [-116.23718, 33.71236], [-116.2373, 33.71223], [-116.23745, 33.71206], [-116.23757, 33.71193], [-116.23767, 33.71181], [-116.23783, 33.71164], [-116.23793, 33.71154], [-116.23836, 33.71107], [-116.23843, 33.711], [-116.23864, 33.71077], [-116.23901, 33.71036], [-116.23914, 33.71021], [-116.2392, 33.71014], [-116.23952, 33.7098], [-116.2396, 33.70971], [-116.23996, 33.70932], [-116.24022, 33.70903], [-116.24043, 33.70882], [-116.2406, 33.70865], [-116.24086, 33.70844], [-116.24119, 33.70822], [-116.24139, 33.7081], [-116.24156, 33.70801], [-116.2417, 33.70793], [-116.24189, 33.70784], [-116.24215, 33.70772], [-116.24255, 33.7076], [-116.24313, 33.70746], [-116.2434, 33.70742], [-116.24365, 33.70739], [-116.24389, 33.70738], [-116.24412, 33.70737], [-116.24472, 33.70737], [-116.24485, 33.70737], [-116.24508, 33.70737], [-116.2457, 33.70737], [-116.2462, 33.70736], [-116.24685, 33.70737], [-116.24719, 33.70736], [-116.24766, 33.70736], [-116.24914, 33.70735], [-116.2495, 33.70735], [-116.24961, 33.70735], [-116.25035, 33.70734], [-116.25049, 33.70734], [-116.25068, 33.70734], [-116.25137, 33.70734], [-116.25152, 33.70738], [-116.25169, 33.7074], [-116.25203, 33.70741], [-116.25234, 33.70741], [-116.25247, 33.70741], [-116.25269, 33.70741], [-116.25298, 33.70741], [-116.25324, 33.70742], [-116.2537, 33.70744], [-116.25468, 33.70744], [-116.25495, 33.70744], [-116.2557, 33.70744], [-116.25632, 33.70744], [-116.25659, 33.70744], [-116.25683, 33.70744], [-116.25835, 33.70743], [-116.25882, 33.70743], [-116.25914, 33.70743], [-116.25937, 33.70743], [-116.26009, 33.70743], [-116.26081, 33.70743], [-116.2611, 33.70743], [-116.26221, 33.70743], [-116.26303, 33.70743], [-116.26389, 33.70743], [-116.26445, 33.70743], [-116.26512, 33.70743], [-116.26588, 33.70743], [-116.26596, 33.70743], [-116.26606, 33.70743], [-116.26662, 33.70743], [-116.26674, 33.70743], [-116.26726, 33.70743], [-116.26753, 33.70743], [-116.26779, 33.70743], [-116.2681, 33.70743], [-116.26838, 33.70742], [-116.26864, 33.70742], [-116.26884, 33.70742], [-116.26946, 33.70744], [-116.26998, 33.70744], [-116.27019, 33.70744], [-116.27046, 33.70744], [-116.27126, 33.70744], [-116.27168, 33.70744], [-116.27211, 33.70744], [-116.2731, 33.70743], [-116.27396, 33.70743], [-116.27423, 33.70743], [-116.27513, 33.70743], [-116.27528, 33.70743], [-116.27595, 33.70743], [-116.27624, 33.70743], [-116.2764, 33.70743], [-116.27747, 33.70743], [-116.27793, 33.70743], [-116.27848, 33.70744], [-116.27869, 33.70745], [-116.27967, 33.7075], [-116.28026, 33.70755], [-116.28064, 33.70759], [-116.28175, 33.70772], [-116.28238, 33.70779], [-116.28348, 33.70791], [-116.28365, 33.70793], [-116.28385, 33.70795], [-116.28418, 33.70799], [-116.28467, 33.70806], [-116.28485, 33.70808], [-116.28537, 33.70817], [-116.28551, 33.70821], [-116.28619, 33.7084], [-116.28654, 33.70851], [-116.28706, 33.70871], [-116.28749, 33.70891], [-116.28797, 33.70917], [-116.28822, 33.70933], [-116.28871, 33.70965], [-116.28909, 33.70995], [-116.28956, 33.71038], [-116.29052, 33.7113], [-116.29078, 33.71157], [-116.29092, 33.71171], [-116.291, 33.71178], [-116.2912, 33.71194], [-116.29137, 33.7121], [-116.29178, 33.71255], [-116.29214, 33.71293], [-116.29244, 33.71321], [-116.29311, 33.71387], [-116.29316, 33.71392], [-116.29358, 33.7143], [-116.29382, 33.71451], [-116.29454, 33.71501], [-116.29479, 33.71515]]}}]}