{"type": "FeatureCollection", "features": [{"type": "Feature", "properties": {"customer_route_number": 76, "name": "Hwy 111 EB: Washington St -> Monroe St", "description": "Start Point is upstream to help with estimating travel time reliability. ", "shared": true}, "geometry": {"type": "LineString", "coordinates": [[-116.29599, 33.71549], [-116.29557, 33.71533], [-116.29499, 33.71502], [-116.29479, 33.7149], [-116.29431, 33.7146], [-116.29406, 33.71441], [-116.29359, 33.71403], [-116.29328, 33.71374], [-116.29302, 33.71349], [-116.2926, 33.71307], [-116.29193, 33.71243], [-116.29159, 33.7121], [-116.29115, 33.71167], [-116.29109, 33.71161], [-116.29055, 33.71108], [-116.29022, 33.71077], [-116.28971, 33.71027], [-116.2892, 33.7098], [-116.28882, 33.7095], [-116.28829, 33.70914], [-116.28812, 33.70905], [-116.28761, 33.70878], [-116.28749, 33.70872], [-116.28714, 33.70856], [-116.28702, 33.70852], [-116.28619, 33.7082], [-116.28575, 33.70808], [-116.28485, 33.7079], [-116.2842, 33.70781], [-116.28355, 33.70775], [-116.28329, 33.70772], [-116.28284, 33.70767], [-116.28177, 33.70756], [-116.28126, 33.7075], [-116.28065, 33.70743], [-116.28027, 33.7074], [-116.27978, 33.70735], [-116.27967, 33.70734], [-116.27898, 33.7073], [-116.2787, 33.70728], [-116.2785, 33.70727], [-116.27808, 33.70727], [-116.27747, 33.70727], [-116.27639, 33.70726], [-116.27506, 33.70726], [-116.27455, 33.70726], [-116.2742, 33.70726], [-116.2731, 33.70726], [-116.27274, 33.70726], [-116.27239, 33.70726], [-116.27138, 33.70726], [-116.27124, 33.70726], [-116.27116, 33.70726], [-116.27028, 33.70727], [-116.26998, 33.70727], [-116.26884, 33.70727], [-116.26864, 33.70727], [-116.26838, 33.70727], [-116.26815, 33.70727], [-116.26726, 33.70727], [-116.26673, 33.70727], [-116.26664, 33.70727], [-116.26602, 33.70727], [-116.2659, 33.70727], [-116.26583, 33.70727], [-116.26512, 33.70727], [-116.26446, 33.70726], [-116.26389, 33.70726], [-116.26302, 33.70726], [-116.2622, 33.70726], [-116.26111, 33.70726], [-116.26081, 33.70726], [-116.26009, 33.70726], [-116.25968, 33.70726], [-116.25936, 33.70726], [-116.25912, 33.70726], [-116.2588, 33.70726], [-116.25834, 33.70726], [-116.25684, 33.70726], [-116.25661, 33.70726], [-116.25626, 33.70726], [-116.25571, 33.70726], [-116.25495, 33.70726], [-116.25468, 33.70726], [-116.25369, 33.70725], [-116.25322, 33.70725], [-116.25296, 33.70725], [-116.25263, 33.70725], [-116.25245, 33.70726], [-116.25233, 33.70726], [-116.252, 33.70726], [-116.25173, 33.70726], [-116.25156, 33.70728], [-116.25137, 33.70734], [-116.25068, 33.70734], [-116.25049, 33.70734], [-116.25035, 33.70734], [-116.24961, 33.70735], [-116.2495, 33.70735], [-116.24914, 33.70735], [-116.24766, 33.70736], [-116.24719, 33.70736], [-116.24685, 33.70737], [-116.2462, 33.70736], [-116.2457, 33.70737], [-116.24508, 33.70737], [-116.24485, 33.70737], [-116.24472, 33.70737], [-116.24412, 33.70737], [-116.24389, 33.70738], [-116.24365, 33.70739], [-116.2434, 33.70742], [-116.24313, 33.70746], [-116.24255, 33.7076], [-116.24215, 33.70772], [-116.24189, 33.70784], [-116.2417, 33.70793], [-116.24156, 33.70801], [-116.24139, 33.7081], [-116.24119, 33.70822], [-116.24086, 33.70844], [-116.2406, 33.70865], [-116.24043, 33.70882], [-116.24022, 33.70903], [-116.23996, 33.70932], [-116.2396, 33.70971], [-116.23952, 33.7098], [-116.2392, 33.71014], [-116.23914, 33.71021], [-116.23901, 33.71036], [-116.23864, 33.71077], [-116.23843, 33.711], [-116.23836, 33.71107], [-116.23793, 33.71154], [-116.23783, 33.71164], [-116.23767, 33.71181], [-116.23757, 33.71193], [-116.23745, 33.71206], [-116.2373, 33.71223], [-116.23718, 33.71236], [-116.23704, 33.71251], [-116.2368, 33.71277], [-116.23648, 33.71307], [-116.23629, 33.71322], [-116.23614, 33.71334], [-116.23599, 33.71345], [-116.23591, 33.71351], [-116.23581, 33.71357], [-116.23569, 33.71365], [-116.23533, 33.71386], [-116.23524, 33.71391], [-116.23509, 33.71398], [-116.23503, 33.71401], [-116.23457, 33.71415], [-116.23434, 33.71424], [-116.23383, 33.71439]]}}]}