{"type": "FeatureCollection", "features": [{"type": "Feature", "properties": {"customer_route_number": 75, "name": "Hwy 111 WB: Washington St -> Cook St", "description": null, "shared": true}, "geometry": {"type": "LineString", "coordinates": [[-116.29499, 33.71527], [-116.29568, 33.71559], [-116.29606, 33.71574], [-116.29654, 33.71589], [-116.29666, 33.71593], [-116.2973, 33.71604], [-116.29747, 33.71606], [-116.29784, 33.71604], [-116.29803, 33.71606], [-116.29814, 33.71607], [-116.29857, 33.71612], [-116.29885, 33.71615], [-116.29924, 33.71619], [-116.2996, 33.71623], [-116.29996, 33.71627], [-116.30061, 33.71634], [-116.30104, 33.71638], [-116.30152, 33.71643], [-116.30202, 33.71649], [-116.3023, 33.71652], [-116.30297, 33.71661], [-116.30382, 33.71675], [-116.30432, 33.71686], [-116.30494, 33.71699], [-116.30538, 33.7171], [-116.30564, 33.71717], [-116.30653, 33.71743], [-116.30766, 33.71783], [-116.30856, 33.7182], [-116.30936, 33.71858], [-116.31192, 33.71985], [-116.31256, 33.72014], [-116.31295, 33.72029], [-116.31372, 33.72053], [-116.3142, 33.72063], [-116.31461, 33.7207], [-116.3152, 33.72077], [-116.31625, 33.72086], [-116.31652, 33.72088], [-116.3173, 33.72095], [-116.31765, 33.72098], [-116.31892, 33.72109], [-116.3204, 33.72122], [-116.32068, 33.72124], [-116.32315, 33.72146], [-116.32437, 33.72154], [-116.32492, 33.72154], [-116.32524, 33.72154], [-116.32559, 33.72155], [-116.32633, 33.72154], [-116.32676, 33.72154], [-116.32694, 33.72159], [-116.32854, 33.72158], [-116.32888, 33.72158], [-116.32956, 33.72157], [-116.33006, 33.72157], [-116.33734, 33.72154], [-116.33771, 33.72154], [-116.33807, 33.72154], [-116.33837, 33.72154], [-116.33881, 33.72153], [-116.33899, 33.72153], [-116.34186, 33.72151], [-116.34219, 33.72151], [-116.34329, 33.7215], [-116.34387, 33.7215], [-116.34608, 33.72149], [-116.34638, 33.72149], [-116.3471, 33.72148], [-116.3475, 33.72148], [-116.34764, 33.72148], [-116.34803, 33.72148], [-116.34909, 33.72147], [-116.35025, 33.72146], [-116.35047, 33.72141], [-116.35079, 33.72141], [-116.35117, 33.72141], [-116.35141, 33.72141], [-116.35192, 33.7214], [-116.35242, 33.72139], [-116.35281, 33.72139], [-116.35315, 33.72139], [-116.35352, 33.72139], [-116.35458, 33.72138], [-116.35484, 33.72138], [-116.35507, 33.72138], [-116.3553, 33.72138], [-116.35579, 33.72138], [-116.35624, 33.72138], [-116.35638, 33.72138], [-116.35685, 33.72137]]}}]}