{"type": "FeatureCollection", "features": [{"type": "Feature", "properties": {"customer_route_number": 73, "name": "Hwy 111: Cook Street -> Parkview Drive", "description": "Acyclica", "shared": true}, "geometry": {"type": "LineString", "coordinates": [[-116.35638, 33.72138], [-116.35685, 33.72137], [-116.35708, 33.72137], [-116.3576, 33.72137], [-116.35819, 33.72136], [-116.35847, 33.72136], [-116.3589, 33.72135], [-116.35938, 33.72134], [-116.35977, 33.72134], [-116.3601, 33.72134], [-116.36059, 33.72133], [-116.36121, 33.72133], [-116.36152, 33.72133], [-116.36224, 33.72133], [-116.36234, 33.72133], [-116.36263, 33.7214], [-116.3634, 33.72141], [-116.36388, 33.7214], [-116.364, 33.7214], [-116.3642, 33.7214], [-116.36501, 33.72139], [-116.36567, 33.72139], [-116.36651, 33.72138], [-116.36804, 33.72136], [-116.36867, 33.72135], [-116.36979, 33.72138], [-116.37082, 33.72137], [-116.37271, 33.72133], [-116.37319, 33.72133], [-116.37375, 33.72133], [-116.37439, 33.72133], [-116.37598, 33.72135], [-116.37712, 33.72136], [-116.37798, 33.72137], [-116.37954, 33.72138], [-116.3799, 33.72139], [-116.38017, 33.72139], [-116.38135, 33.72141], [-116.38178, 33.72141], [-116.38251, 33.72142], [-116.38348, 33.72143], [-116.38378, 33.72142], [-116.38398, 33.72142], [-116.38438, 33.72142], [-116.386, 33.72145], [-116.38772, 33.72146], [-116.39016, 33.72149], [-116.39029, 33.7215], [-116.3904, 33.7215], [-116.39083, 33.7215], [-116.39124, 33.72151], [-116.39147, 33.72152], [-116.39217, 33.72153], [-116.39297, 33.72157], [-116.39308, 33.72157], [-116.39355, 33.72159], [-116.39439, 33.72163], [-116.39509, 33.72169], [-116.39567, 33.7218], [-116.39612, 33.7219], [-116.39618, 33.72191], [-116.39663, 33.72207], [-116.39688, 33.72216], [-116.3975, 33.72246], [-116.39796, 33.72274], [-116.39826, 33.72293], [-116.39847, 33.72309], [-116.39852, 33.72313], [-116.39858, 33.72319], [-116.39877, 33.72335], [-116.39892, 33.72348], [-116.39913, 33.7237], [-116.39939, 33.72401], [-116.39985, 33.72457], [-116.40012, 33.7249], [-116.40054, 33.72546], [-116.4009, 33.72597], [-116.40106, 33.72619], [-116.40121, 33.72641], [-116.40149, 33.72679], [-116.40156, 33.72689], [-116.40233, 33.72796], [-116.40275, 33.72855], [-116.40284, 33.72868], [-116.40323, 33.72924], [-116.40388, 33.73013], [-116.40445, 33.73092]]}}]}