{"type": "FeatureCollection", "features": [{"type": "Feature", "properties": {"customer_route_number": 289, "name": "NB: Avenue 48 -> Highway 111 ", "description": "wasn't working earlier for some reason", "shared": true}, "geometry": {"type": "LineString", "coordinates": [[-116.28604, 33.70005], [-116.28606, 33.7015], [-116.28608, 33.70279], [-116.28609, 33.70377], [-116.28609, 33.70535], [-116.28609, 33.70632], [-116.28611, 33.70644], [-116.28617, 33.70652], [-116.28618, 33.70736], [-116.28618, 33.70767], [-116.28619, 33.7082]]}}]}