{"type": "FeatureCollection", "features": [{"type": "Feature", "properties": {"customer_route_number": 290, "name": "NB: Highway 111 -> Avenue 48", "description": "wasn't working earlier for some reason", "shared": true}, "geometry": {"type": "LineString", "coordinates": [[-116.28619, 33.7082], [-116.28618, 33.70767], [-116.28618, 33.70736], [-116.28617, 33.70652], [-116.28623, 33.70646], [-116.28626, 33.70636], [-116.28625, 33.70541], [-116.28626, 33.70378], [-116.28624, 33.70278], [-116.28623, 33.7015], [-116.28622, 33.70005]]}}]}