{"type": "FeatureCollection", "features": [{"type": "Feature", "properties": {"customer_route_number": 65, "name": "#18-20 NB: Avenue 41 -> Harris Ln -> Country Club Drive", "description": "Clear guide didn't have it configured for me to click from Harris Ln to Country Club drive moving northward, so had to chose the closest configuration. Its slightly north of Country club drive before the 10 East Freeway entrance ", "shared": true}, "geometry": {"type": "LineString", "coordinates": [[-116.30374, 33.75089], [-116.30374, 33.75135], [-116.30373, 33.75182], [-116.30373, 33.75229], [-116.30373, 33.75302], [-116.30373, 33.75364], [-116.30372, 33.75454], [-116.30371, 33.75468], [-116.30364, 33.7552], [-116.30354, 33.75553], [-116.30337, 33.75603], [-116.303, 33.75689], [-116.3027, 33.75763], [-116.30268, 33.75777], [-116.30243, 33.75824], [-116.30229, 33.75851]]}}]}