{"type": "FeatureCollection", "features": [{"type": "Feature", "properties": {"customer_route_number": 47, "name": "#11-12 NB: Channel Drive -> Miles Avenue", "description": null, "shared": true}, "geometry": {"type": "LineString", "coordinates": [[-116.29482, 33.71686], [-116.29482, 33.71723], [-116.29485, 33.71768], [-116.29487, 33.71778], [-116.29492, 33.71808], [-116.29503, 33.71853], [-116.29508, 33.71866], [-116.29516, 33.71889], [-116.29536, 33.71932], [-116.29563, 33.7198], [-116.29591, 33.72017], [-116.29598, 33.72025], [-116.29633, 33.72065], [-116.2966, 33.7209], [-116.29679, 33.72108], [-116.29703, 33.72128], [-116.29729, 33.72149], [-116.29753, 33.72169]]}}]}