{"type": "FeatureCollection", "features": [{"type": "Feature", "properties": {"customer_route_number": 53, "name": "#14-15 NB: Fred Waring Drive -> Palm Royale Drive ", "description": null, "shared": true}, "geometry": {"type": "LineString", "coordinates": [[-116.30381, 33.72898], [-116.30378, 33.7296], [-116.30379, 33.72992], [-116.30379, 33.73004], [-116.3038, 33.73062], [-116.3038, 33.73123], [-116.3038, 33.73169], [-116.3038, 33.73175], [-116.3038, 33.73199], [-116.30379, 33.73249], [-116.30379, 33.73357], [-116.30379, 33.73407], [-116.30379, 33.73435], [-116.30379, 33.73473], [-116.30379, 33.73535]]}}]}