{"type": "FeatureCollection", "features": [{"type": "Feature", "properties": {"customer_route_number": 55, "name": "#15-16 NB: Palm Royale Drive -> Avenue of the States", "description": null, "shared": true}, "geometry": {"type": "LineString", "coordinates": [[-116.30379, 33.73535], [-116.30379, 33.73625], [-116.30378, 33.73698], [-116.30379, 33.73738], [-116.30378, 33.73782], [-116.30378, 33.73811], [-116.30378, 33.73824], [-116.30378, 33.73878], [-116.30377, 33.73956], [-116.30378, 33.73998], [-116.30378, 33.74036], [-116.30378, 33.74062]]}}]}