{"type": "FeatureCollection", "features": [{"type": "Feature", "properties": {"customer_route_number": 51, "name": "#13-14 NB: Via Sevilla -> Fred Waring Drive", "description": null, "shared": true}, "geometry": {"type": "LineString", "coordinates": [[-116.30143, 33.72491], [-116.30199, 33.72536], [-116.30235, 33.7257], [-116.30279, 33.72618], [-116.30328, 33.72697], [-116.30348, 33.72742], [-116.30358, 33.72765], [-116.3037, 33.72806], [-116.30373, 33.72822], [-116.30376, 33.7284], [-116.30381, 33.72898]]}}]}