{"type": "FeatureCollection", "features": [{"type": "Feature", "properties": {"customer_route_number": 67, "name": "#19-18 SB: Harris Lane -> Avenue 41", "description": null, "shared": true}, "geometry": {"type": "LineString", "coordinates": [[-116.30349, 33.75607], [-116.30354, 33.75595], [-116.30369, 33.75557], [-116.30384, 33.75503], [-116.30388, 33.75468], [-116.30388, 33.75454], [-116.30389, 33.75397], [-116.30389, 33.75364], [-116.3039, 33.75228], [-116.3039, 33.75182], [-116.3039, 33.7513], [-116.3039, 33.75089]]}}]}