{"type": "FeatureCollection", "features": [{"type": "Feature", "properties": {"customer_route_number": 71, "name": "Segment: (WB) Canyon Plaza West -> Jermaine Gibson  ", "description": null, "shared": true}, "geometry": {"type": "LineString", "coordinates": [[-116.4519, 33.77614], [-116.45218, 33.77623], [-116.45255, 33.77633], [-116.45289, 33.77638], [-116.45374, 33.77649], [-116.45403, 33.77653], [-116.45439, 33.77658], [-116.45456, 33.77668], [-116.45531, 33.77689], [-116.45598, 33.77713], [-116.45711, 33.77761], [-116.45797, 33.77798], [-116.4584, 33.77813], [-116.45865, 33.77822], [-116.45934, 33.77846], [-116.45967, 33.77855], [-116.4603, 33.77873], [-116.46084, 33.77888], [-116.46161, 33.77909], [-116.46192, 33.77918], [-116.46246, 33.77933], [-116.46286, 33.77944], [-116.46418, 33.77981], [-116.46436, 33.77986], [-116.4646, 33.77993], [-116.46463, 33.77994], [-116.46485, 33.78], [-116.46569, 33.78023], [-116.46603, 33.78033], [-116.46627, 33.7804], [-116.46682, 33.78055], [-116.46766, 33.78077], [-116.46795, 33.78085], [-116.4683, 33.78095], [-116.46869, 33.78106], [-116.46891, 33.78112], [-116.46911, 33.78118], [-116.4694, 33.78127], [-116.46966, 33.78136], [-116.4704, 33.78166], [-116.47056, 33.78173], [-116.47093, 33.78192], [-116.47113, 33.78203], [-116.47188, 33.78246], [-116.47239, 33.78275], [-116.47308, 33.78315], [-116.47329, 33.78327], [-116.47347, 33.78336], [-116.47365, 33.7834], [-116.47405, 33.78363], [-116.47434, 33.78379], [-116.47498, 33.78415], [-116.4753, 33.78433], [-116.4755, 33.78444], [-116.47566, 33.78453], [-116.4764, 33.78496], [-116.47656, 33.78506], [-116.47677, 33.78518], [-116.47699, 33.7853], [-116.47715, 33.7854], [-116.47753, 33.78561], [-116.47773, 33.78573], [-116.47848, 33.78616], [-116.47875, 33.78631], [-116.479, 33.78646], [-116.47923, 33.78659], [-116.47968, 33.78684]]}}]}