{"type": "FeatureCollection", "features": [{"type": "Feature", "properties": {"customer_route_number": 70, "name": "Segment: (EB) Jermaine Gibson -> Canyon Plaza West", "description": null, "shared": true}, "geometry": {"type": "LineString", "coordinates": [[-116.47968, 33.78684], [-116.47923, 33.78659], [-116.479, 33.78646], [-116.47875, 33.78631], [-116.47848, 33.78616], [-116.47773, 33.78573], [-116.47753, 33.78561], [-116.47715, 33.7854], [-116.47699, 33.7853], [-116.47677, 33.78518], [-116.47656, 33.78506], [-116.4764, 33.78496], [-116.47566, 33.78453], [-116.4755, 33.78444], [-116.4753, 33.78433], [-116.47498, 33.78415], [-116.47434, 33.78379], [-116.47405, 33.78363], [-116.47365, 33.7834], [-116.47363, 33.78336], [-116.47353, 33.78326], [-116.4732, 33.78305], [-116.47276, 33.7828], [-116.47243, 33.78261], [-116.47201, 33.78237], [-116.47161, 33.78214], [-116.47103, 33.78181], [-116.47082, 33.7817], [-116.47048, 33.78154], [-116.46972, 33.78123], [-116.46948, 33.78115], [-116.46917, 33.78105], [-116.46896, 33.78099], [-116.46874, 33.78093], [-116.46839, 33.78083], [-116.46817, 33.78077], [-116.46771, 33.78063], [-116.46744, 33.78057], [-116.46683, 33.78042], [-116.46639, 33.78032], [-116.46611, 33.78024], [-116.46558, 33.78009], [-116.46516, 33.77998], [-116.46463, 33.77983], [-116.4635, 33.77952], [-116.46308, 33.77941], [-116.46282, 33.77933], [-116.46246, 33.77924], [-116.46114, 33.77887], [-116.46078, 33.77877], [-116.4603, 33.77864], [-116.45967, 33.77845], [-116.45928, 33.7783], [-116.45897, 33.77818], [-116.45798, 33.7778], [-116.45772, 33.7777], [-116.45723, 33.77748], [-116.45688, 33.77733], [-116.45663, 33.77723], [-116.45603, 33.77699], [-116.45573, 33.77689], [-116.45538, 33.77677], [-116.4546, 33.77657], [-116.45439, 33.77658], [-116.45403, 33.77653], [-116.45374, 33.77649], [-116.45289, 33.77638], [-116.45255, 33.77633], [-116.45218, 33.77623]]}}]}