{"type": "FeatureCollection", "features": [{"type": "Feature", "properties": {"customer_route_number": 286, "name": "WB: Adams St -> Washington St", "description": "Will use for \"CV SYNC DATA TEST\" Email from Carlos and Justin", "shared": true}, "geometry": {"type": "LineString", "coordinates": [[-116.28619, 33.7084], [-116.28654, 33.70851], [-116.28706, 33.70871], [-116.28749, 33.70891], [-116.28797, 33.70917], [-116.28822, 33.70933], [-116.28871, 33.70965], [-116.28909, 33.70995], [-116.28956, 33.71038], [-116.29052, 33.7113], [-116.29078, 33.71157], [-116.29092, 33.71171], [-116.291, 33.71178], [-116.2912, 33.71194], [-116.29137, 33.7121], [-116.29178, 33.71255], [-116.29214, 33.71293], [-116.29244, 33.71321], [-116.29311, 33.71387], [-116.29316, 33.71392], [-116.29358, 33.7143], [-116.29382, 33.71451], [-116.29454, 33.71501], [-116.29479, 33.71515]]}}]}